LIME                    
1 62648U 25009AR  26068.73906781  .00013254  00000+0  47723-3 0  9995
2 62648  97.3985 151.4831 0001635  35.9029 324.2320 15.28703313 63766
STARLINK-35899          
1 66497U 25263N   26068.17994564  .00031635  00000+0  11551-2 0  9999
2 66497  43.0043 353.3380 0001687 249.5468 110.5203 15.27553031 18826
